Hoopoe
1 42718U 98067LZ  17348.80047118  .00014966  00000-0  16531-3 0  9999
2 42718  51.6367 211.3583 0002466 247.7220 112.3513 15.63286771 32059
Challenger
1 42721U 98067MA  17348.82954630  .00025598  00000-0  24950-3 0  9998
2 42721  51.6353 210.0315 0005262 233.2531 126.7982 15.66045505 31777
NJUST-1
1 42722U 98067MB  17348.82302149  .00011408  00000-0  13984-3 0  9991
2 42722  51.6373 213.0099 0005577 248.6800 111.3598 15.60853198 31738
UNSW-EC0
1 42723U 98067MC  17348.83536076  .00017799  00000-0  19552-3 0  9997
2 42723  51.6377 211.5974 0005165 240.6931 119.3548 15.63268519 31731
DUTHsat
1 42724U 98067MD  17348.85885048  .00022962  00000-0  22891-3 0  9994
2 42724  51.6361 210.2418 0004489 232.7080 127.3507 15.65553062 31678
LO-90
1 42725U 98067ME  17348.85785637  .00014411  00000-0  16943-3 0  9999
2 42725  51.6373 212.4948 0004565 245.9344 114.1172 15.61698638 31642
nSIGHT1
1 42726U 98067MF  17348.82277415  .00006018  00000-0  83728-4 0  9997
2 42726  51.6383 214.5200 0005026 257.6588 102.3842 15.58502254 31626
QBITO
1 42728U 98067MH  17348.87347407  .00015106  00000-0  17266-3 0  9994
2 42728  51.6389 211.8670 0002250 232.8586 127.2203 15.62394164 31467
Aalto-2
1 42729U 98067MJ  17348.87145814  .00014837  00000-0  16926-3 0  9995
2 42729  51.6373 211.8391 0002234 231.7972 128.2822 15.62459748 31479
SUSat
1 42730U 98067MK  17348.82887421  .00014711  00000-0  17055-3 0  9994
2 42730  51.6369 212.2978 0002378 232.5606 127.5172 15.62048865 31456
i-INSPIRE II
1 42731U 98067ML  17348.81744097  .00018247  00000-0  19835-3 0  9991
2 42731  51.6359 211.4530 0006962 195.0745 165.0043 15.63506269 31510
PolyITAN-2-SAU
1 42732U 98067MM  17348.79656614  .00015278  00000-0  17277-3 0  9995
2 42732  51.6366 212.0693 0006924 196.1187 163.9588 15.62642832 31502
SNUSAT-1
1 42733U 98067MN  17348.76582447  .00014990  00000-0  17382-3 0  9992
2 42733  51.6368 212.6176 0006875 198.4483 161.6263 15.62009131 31498
ExAlta-1
1 42734U 98067MP  17348.82308495  .00017862  00000-0  19429-3 0  9994
2 42734  51.6357 211.4930 0007427 220.0451 139.9996 15.63503649 31465
Aoxiang-1
1 42735U 98067MQ  17348.81383651  .00012011  00000-0  14608-3 0  9996
2 42735  51.6367 212.9412 0006167 246.0674 113.9674 15.60996811 32867
BeEagleSat
1 42736U 98067MR  17348.85513397  .00013110  00000-0  15574-3 0  9997
2 42736  51.6366 212.4659 0006039 243.3945 116.6430 15.61517038 31561
Atlantis
1 42737U 98067MS  17348.81612273  .00049359  00000-0  35988-3 0  9992
2 42737  51.6325 206.9045 0006434 216.7583 143.2975 15.72752962 31520
CAS-4B
1 42759U 17034B   17348.79934028  .00000343  00000-0  34870-4 0  9993
2 42759  43.0188  15.3972 0007946  25.9612 327.6139 15.09135691 27584
CAS-4A
1 42761U 17034D   17348.85609954  .00000390  00000-0  37708-4 0  9995
2 42761  43.0195  14.9717 0008311  27.9683 323.3563 15.09211602 27585
UCLSat
1 42765U 17036A   17348.61375962  .00001416  00000-0  66249-4 0  9996
2 42765 097.4281 046.2196 0012124 011.3406 348.8101 15.21341502027233
NIUSat
1 42766U 17036B   17348.76221942  .00001085  00000-0  53466-4 0  9990
2 42766  97.4283  46.0293 0015870 354.9527   5.1546 15.19982064 26510
