Satellite: Hoopoe
Catalog number: 42718
Epoch time: 17348.800471
Element set: 999
Inclination: 51.636700 deg
RA of node: 211.358300 deg
Eccentricity: 0.000247
Arg of perigee: 247.722000 deg
Mean anomaly: 112.351300 deg
Mean motion: 15.632868 rev/day
Decay rate: 1.496600e-04 rev/day^2
Epoch rev: 3205

Satellite: Challenger
Catalog number: 42721
Epoch time: 17348.829546
Element set: 999
Inclination: 51.635300 deg
RA of node: 210.031500 deg
Eccentricity: 0.000526
Arg of perigee: 233.253100 deg
Mean anomaly: 126.798200 deg
Mean motion: 15.660455 rev/day
Decay rate: 2.559800e-04 rev/day^2
Epoch rev: 3177

Satellite: NJUST-1
Catalog number: 42722
Epoch time: 17348.823021
Element set: 999
Inclination: 51.637300 deg
RA of node: 213.009900 deg
Eccentricity: 0.000558
Arg of perigee: 248.680000 deg
Mean anomaly: 111.359800 deg
Mean motion: 15.608532 rev/day
Decay rate: 1.140800e-04 rev/day^2
Epoch rev: 3173

Satellite: UNSW-EC0
Catalog number: 42723
Epoch time: 17348.835361
Element set: 999
Inclination: 51.637700 deg
RA of node: 211.597400 deg
Eccentricity: 0.000516
Arg of perigee: 240.693100 deg
Mean anomaly: 119.354800 deg
Mean motion: 15.632685 rev/day
Decay rate: 1.779900e-04 rev/day^2
Epoch rev: 3173

Satellite: DUTHsat
Catalog number: 42724
Epoch time: 17348.858850
Element set: 999
Inclination: 51.636100 deg
RA of node: 210.241800 deg
Eccentricity: 0.000449
Arg of perigee: 232.708000 deg
Mean anomaly: 127.350700 deg
Mean motion: 15.655531 rev/day
Decay rate: 2.296200e-04 rev/day^2
Epoch rev: 3167

Satellite: LO-90
Catalog number: 42725
Epoch time: 17348.857856
Element set: 999
Inclination: 51.637300 deg
RA of node: 212.494800 deg
Eccentricity: 0.000456
Arg of perigee: 245.934400 deg
Mean anomaly: 114.117200 deg
Mean motion: 15.616986 rev/day
Decay rate: 1.441100e-04 rev/day^2
Epoch rev: 3164

Satellite: nSIGHT1
Catalog number: 42726
Epoch time: 17348.822774
Element set: 999
Inclination: 51.638300 deg
RA of node: 214.520000 deg
Eccentricity: 0.000503
Arg of perigee: 257.658800 deg
Mean anomaly: 102.384200 deg
Mean motion: 15.585023 rev/day
Decay rate: 6.018000e-05 rev/day^2
Epoch rev: 3162

Satellite: QBITO
Catalog number: 42728
Epoch time: 17348.873474
Element set: 999
Inclination: 51.638900 deg
RA of node: 211.867000 deg
Eccentricity: 0.000225
Arg of perigee: 232.858600 deg
Mean anomaly: 127.220300 deg
Mean motion: 15.623942 rev/day
Decay rate: 1.510600e-04 rev/day^2
Epoch rev: 3146

Satellite: Aalto-2
Catalog number: 42729
Epoch time: 17348.871458
Element set: 999
Inclination: 51.637300 deg
RA of node: 211.839100 deg
Eccentricity: 0.000223
Arg of perigee: 231.797200 deg
Mean anomaly: 128.282200 deg
Mean motion: 15.624597 rev/day
Decay rate: 1.483700e-04 rev/day^2
Epoch rev: 3147

Satellite: SUSat
Catalog number: 42730
Epoch time: 17348.828874
Element set: 999
Inclination: 51.636900 deg
RA of node: 212.297800 deg
Eccentricity: 0.000238
Arg of perigee: 232.560600 deg
Mean anomaly: 127.517200 deg
Mean motion: 15.620489 rev/day
Decay rate: 1.471100e-04 rev/day^2
Epoch rev: 3145

Satellite: i-INSPIRE II
Catalog number: 42731
Epoch time: 17348.817441
Element set: 999
Inclination: 51.635900 deg
RA of node: 211.453000 deg
Eccentricity: 0.000696
Arg of perigee: 195.074500 deg
Mean anomaly: 165.004300 deg
Mean motion: 15.635063 rev/day
Decay rate: 1.824700e-04 rev/day^2
Epoch rev: 3151

Satellite: PolyITAN-2-SAU
Catalog number: 42732
Epoch time: 17348.796566
Element set: 999
Inclination: 51.636600 deg
RA of node: 212.069300 deg
Eccentricity: 0.000692
Arg of perigee: 196.118700 deg
Mean anomaly: 163.958800 deg
Mean motion: 15.626428 rev/day
Decay rate: 1.527800e-04 rev/day^2
Epoch rev: 3150

Satellite: SNUSAT-1
Catalog number: 42733
Epoch time: 17348.765824
Element set: 999
Inclination: 51.636800 deg
RA of node: 212.617600 deg
Eccentricity: 0.000687
Arg of perigee: 198.448300 deg
Mean anomaly: 161.626300 deg
Mean motion: 15.620091 rev/day
Decay rate: 1.499000e-04 rev/day^2
Epoch rev: 3149

Satellite: ExAlta-1
Catalog number: 42734
Epoch time: 17348.823085
Element set: 999
Inclination: 51.635700 deg
RA of node: 211.493000 deg
Eccentricity: 0.000743
Arg of perigee: 220.045100 deg
Mean anomaly: 139.999600 deg
Mean motion: 15.635036 rev/day
Decay rate: 1.786200e-04 rev/day^2
Epoch rev: 3146

Satellite: Aoxiang-1
Catalog number: 42735
Epoch time: 17348.813837
Element set: 999
Inclination: 51.636700 deg
RA of node: 212.941200 deg
Eccentricity: 0.000617
Arg of perigee: 246.067400 deg
Mean anomaly: 113.967400 deg
Mean motion: 15.609968 rev/day
Decay rate: 1.201100e-04 rev/day^2
Epoch rev: 3286

Satellite: BeEagleSat
Catalog number: 42736
Epoch time: 17348.855134
Element set: 999
Inclination: 51.636600 deg
RA of node: 212.465900 deg
Eccentricity: 0.000604
Arg of perigee: 243.394500 deg
Mean anomaly: 116.643000 deg
Mean motion: 15.615170 rev/day
Decay rate: 1.311000e-04 rev/day^2
Epoch rev: 3156

Satellite: Atlantis
Catalog number: 42737
Epoch time: 17348.816123
Element set: 999
Inclination: 51.632500 deg
RA of node: 206.904500 deg
Eccentricity: 0.000643
Arg of perigee: 216.758300 deg
Mean anomaly: 143.297500 deg
Mean motion: 15.727530 rev/day
Decay rate: 4.935900e-04 rev/day^2
Epoch rev: 3152

Satellite: CAS-4B
Catalog number: 42759
Epoch time: 17348.799340
Element set: 999
Inclination: 43.018800 deg
RA of node: 15.397200 deg
Eccentricity: 0.000795
Arg of perigee: 25.961200 deg
Mean anomaly: 327.613900 deg
Mean motion: 15.091357 rev/day
Decay rate: 3.430000e-06 rev/day^2
Epoch rev: 2758

Satellite: CAS-4A
Catalog number: 42761
Epoch time: 17348.856100
Element set: 999
Inclination: 43.019500 deg
RA of node: 14.971700 deg
Eccentricity: 0.000831
Arg of perigee: 27.968300 deg
Mean anomaly: 323.356300 deg
Mean motion: 15.092116 rev/day
Decay rate: 3.900000e-06 rev/day^2
Epoch rev: 2758

Satellite: UCLSat
Catalog number: 42765
Epoch time: 17348.613760
Element set: 999
Inclination: 97.428100 deg
RA of node: 46.219600 deg
Eccentricity: 0.001212
Arg of perigee: 11.340600 deg
Mean anomaly: 348.810100 deg
Mean motion: 15.213415 rev/day
Decay rate: 1.416000e-05 rev/day^2
Epoch rev: 272

Satellite: NIUSat
Catalog number: 42766
Epoch time: 17348.762219
Element set: 999
Inclination: 97.428300 deg
RA of node: 46.029300 deg
Eccentricity: 0.001587
Arg of perigee: 354.952700 deg
Mean anomaly: 5.154600 deg
Mean motion: 15.199821 rev/day
Decay rate: 1.085000e-05 rev/day^2
Epoch rev: 2651

